[
    {
        "Altitude(m)": 607897.6193251793,
        "Argument of Periapsis(deg)": 0.0,
        "Eccentricity": 0.0,
        "Inclination(deg)": 60.0,
        "Latitude(deg)": -14.292960963417402,
        "Longitude(deg)": 171.6187317306627,
        "Mean Anomaly(deg)": -16.363600000000087,
        "RAAN(deg)": 280.0,
        "Satellite Name": "Test1 1253",
        "Satellite Number": 1253,
        "Semi-Major Axis(m)": 6980739.136638005,
        "Time(s)": 0
    },
    {
        "Altitude(m)": 607750.8205291989,
        "Argument of Periapsis(deg)": 0.00010418945913296404,
        "Eccentricity": 0.0,
        "Inclination(deg)": 60.0,
        "Latitude(deg)": -13.758802829883665,
        "Longitude(deg)": 171.90580159865635,
        "Mean Anomaly(deg)": -15.743493854538235,
        "RAAN(deg)": 279.99957995086027,
        "Satellite Name": "Test1 1253",
        "Satellite Number": 1253,
        "Semi-Major Axis(m)": 6980739.136638005,
        "Time(s)": 10
    }
]